<?xml version="1.0" encoding="UTF-8"?>
<ndm xmlns:xsi="http://www.w3.org/2001/XMLSchema-instance" xsi:noNamespaceSchemaLocation="https://sanaregistry.org/r/ndmxml_unqualified/ndmxml-2.0.0-master-2.0.xsd">
<omm id="CCSDS_OMM_VERS" version="2.0">
<header><CREATION_DATE/><ORIGINATOR/></header><body><segment><metadata><OBJECT_NAME>ORBCOMM FM05</OBJECT_NAME><OBJECT_ID>1997-084F</OBJECT_ID><CENTER_NAME>EARTH</CENTER_NAME><REF_FRAME>TEME</REF_FRAME><TIME_SYSTEM>UTC</TIME_SYSTEM><MEAN_ELEMENT_THEORY>SGP4</MEAN_ELEMENT_THEORY></metadata><data><meanElements><EPOCH>2025-02-24T13:50:36.273408</EPOCH><MEAN_MOTION>14.45255121</MEAN_MOTION><ECCENTRICITY>.0000755</ECCENTRICITY><INCLINATION>45.0131</INCLINATION><RA_OF_ASC_NODE>188.5093</RA_OF_ASC_NODE><ARG_OF_PERICENTER>299.9628</ARG_OF_PERICENTER><MEAN_ANOMALY>60.1148</MEAN_ANOMALY></meanElements><tleParameters><EPHEMERIS_TYPE>0</EPHEMERIS_TYPE><CLASSIFICATION_TYPE>U</CLASSIFICATION_TYPE><NORAD_CAT_ID>25117</NORAD_CAT_ID><ELEMENT_SET_NO>999</ELEMENT_SET_NO><REV_AT_EPOCH>42431</REV_AT_EPOCH><BSTAR>.12614E-2</BSTAR><MEAN_MOTION_DOT>.4325E-4</MEAN_MOTION_DOT><MEAN_MOTION_DDOT>0</MEAN_MOTION_DDOT></tleParameters></data></segment></body></omm>
<omm id="CCSDS_OMM_VERS" version="2.0">
<header><CREATION_DATE/><ORIGINATOR/></header><body><segment><metadata><OBJECT_NAME>ORBCOMM FM06</OBJECT_NAME><OBJECT_ID>1997-084G</OBJECT_ID><CENTER_NAME>EARTH</CENTER_NAME><REF_FRAME>TEME</REF_FRAME><TIME_SYSTEM>UTC</TIME_SYSTEM><MEAN_ELEMENT_THEORY>SGP4</MEAN_ELEMENT_THEORY></metadata><data><meanElements><EPOCH>2025-02-24T14:25:05.973312</EPOCH><MEAN_MOTION>14.45417926</MEAN_MOTION><ECCENTRICITY>.0000975</ECCENTRICITY><INCLINATION>45.0122</INCLINATION><RA_OF_ASC_NODE>188.2627</RA_OF_ASC_NODE><ARG_OF_PERICENTER>229.2935</ARG_OF_PERICENTER><MEAN_ANOMALY>240.2311</MEAN_ANOMALY></meanElements><tleParameters><EPHEMERIS_TYPE>0</EPHEMERIS_TYPE><CLASSIFICATION_TYPE>U</CLASSIFICATION_TYPE><NORAD_CAT_ID>25118</NORAD_CAT_ID><ELEMENT_SET_NO>999</ELEMENT_SET_NO><REV_AT_EPOCH>42523</REV_AT_EPOCH><BSTAR>.11448E-2</BSTAR><MEAN_MOTION_DOT>.3925E-4</MEAN_MOTION_DOT><MEAN_MOTION_DDOT>0</MEAN_MOTION_DDOT></tleParameters></data></segment></body></omm>
<omm id="CCSDS_OMM_VERS" version="2.0">
<header><CREATION_DATE/><ORIGINATOR/></header><body><segment><metadata><OBJECT_NAME>ORBCOMM FM07</OBJECT_NAME><OBJECT_ID>1997-084H</OBJECT_ID><CENTER_NAME>EARTH</CENTER_NAME><REF_FRAME>TEME</REF_FRAME><TIME_SYSTEM>UTC</TIME_SYSTEM><MEAN_ELEMENT_THEORY>SGP4</MEAN_ELEMENT_THEORY></metadata><data><meanElements><EPOCH>2025-02-24T12:32:13.126560</EPOCH><MEAN_MOTION>14.45363707</MEAN_MOTION><ECCENTRICITY>.0001472</ECCENTRICITY><INCLINATION>45.0118</INCLINATION><RA_OF_ASC_NODE>189.3924</RA_OF_ASC_NODE><ARG_OF_PERICENTER>317.5719</ARG_OF_PERICENTER><MEAN_ANOMALY>42.5019</MEAN_ANOMALY></meanElements><tleParameters><EPHEMERIS_TYPE>0</EPHEMERIS_TYPE><CLASSIFICATION_TYPE>U</CLASSIFICATION_TYPE><NORAD_CAT_ID>25119</NORAD_CAT_ID><ELEMENT_SET_NO>999</ELEMENT_SET_NO><REV_AT_EPOCH>42521</REV_AT_EPOCH><BSTAR>.13495E-2</BSTAR><MEAN_MOTION_DOT>.4648E-4</MEAN_MOTION_DOT><MEAN_MOTION_DDOT>0</MEAN_MOTION_DDOT></tleParameters></data></segment></body></omm>
<omm id="CCSDS_OMM_VERS" version="2.0">
<header><CREATION_DATE/><ORIGINATOR/></header><body><segment><metadata><OBJECT_NAME>ORBCOMM FM03</OBJECT_NAME><OBJECT_ID>1998-007B</OBJECT_ID><CENTER_NAME>EARTH</CENTER_NAME><REF_FRAME>TEME</REF_FRAME><TIME_SYSTEM>UTC</TIME_SYSTEM><MEAN_ELEMENT_THEORY>SGP4</MEAN_ELEMENT_THEORY></metadata><data><meanElements><EPOCH>2025-02-24T11:44:49.070976</EPOCH><MEAN_MOTION>14.34049918</MEAN_MOTION><ECCENTRICITY>.0043527</ECCENTRICITY><INCLINATION>107.9708</INCLINATION><RA_OF_ASC_NODE>264.1590</RA_OF_ASC_NODE><ARG_OF_PERICENTER>85.8019</ARG_OF_PERICENTER><MEAN_ANOMALY>274.8093</MEAN_ANOMALY></meanElements><tleParameters><EPHEMERIS_TYPE>0</EPHEMERIS_TYPE><CLASSIFICATION_TYPE>U</CLASSIFICATION_TYPE><NORAD_CAT_ID>25158</NORAD_CAT_ID><ELEMENT_SET_NO>999</ELEMENT_SET_NO><REV_AT_EPOCH>40788</REV_AT_EPOCH><BSTAR>.95888E-3</BSTAR><MEAN_MOTION_DOT>.2582E-4</MEAN_MOTION_DOT><MEAN_MOTION_DDOT>0</MEAN_MOTION_DDOT></tleParameters></data></segment></body></omm>
<omm id="CCSDS_OMM_VERS" version="2.0">
<header><CREATION_DATE/><ORIGINATOR/></header><body><segment><metadata><OBJECT_NAME>ORBCOMM FM04</OBJECT_NAME><OBJECT_ID>1998-007C</OBJECT_ID><CENTER_NAME>EARTH</CENTER_NAME><REF_FRAME>TEME</REF_FRAME><TIME_SYSTEM>UTC</TIME_SYSTEM><MEAN_ELEMENT_THEORY>SGP4</MEAN_ELEMENT_THEORY></metadata><data><meanElements><EPOCH>2025-02-24T11:50:49.417728</EPOCH><MEAN_MOTION>14.34310883</MEAN_MOTION><ECCENTRICITY>.0039277</ECCENTRICITY><INCLINATION>107.9694</INCLINATION><RA_OF_ASC_NODE>267.3126</RA_OF_ASC_NODE><ARG_OF_PERICENTER>83.0340</ARG_OF_PERICENTER><MEAN_ANOMALY>277.5265</MEAN_ANOMALY></meanElements><tleParameters><EPHEMERIS_TYPE>0</EPHEMERIS_TYPE><CLASSIFICATION_TYPE>U</CLASSIFICATION_TYPE><NORAD_CAT_ID>25159</NORAD_CAT_ID><ELEMENT_SET_NO>999</ELEMENT_SET_NO><REV_AT_EPOCH>40806</REV_AT_EPOCH><BSTAR>.87439E-3</BSTAR><MEAN_MOTION_DOT>.2351E-4</MEAN_MOTION_DOT><MEAN_MOTION_DDOT>0</MEAN_MOTION_DDOT></tleParameters></data></segment></body></omm>
<omm id="CCSDS_OMM_VERS" version="2.0">
<header><CREATION_DATE/><ORIGINATOR/></header><body><segment><metadata><OBJECT_NAME>ORBCOMM FM17</OBJECT_NAME><OBJECT_ID>1998-046A</OBJECT_ID><CENTER_NAME>EARTH</CENTER_NAME><REF_FRAME>TEME</REF_FRAME><TIME_SYSTEM>UTC</TIME_SYSTEM><MEAN_ELEMENT_THEORY>SGP4</MEAN_ELEMENT_THEORY></metadata><data><meanElements><EPOCH>2025-02-24T11:19:49.462464</EPOCH><MEAN_MOTION>14.34702816</MEAN_MOTION><ECCENTRICITY>.0003578</ECCENTRICITY><INCLINATION>44.9938</INCLINATION><RA_OF_ASC_NODE>69.4328</RA_OF_ASC_NODE><ARG_OF_PERICENTER>324.6481</ARG_OF_PERICENTER><MEAN_ANOMALY>35.4128</MEAN_ANOMALY></meanElements><tleParameters><EPHEMERIS_TYPE>0</EPHEMERIS_TYPE><CLASSIFICATION_TYPE>U</CLASSIFICATION_TYPE><NORAD_CAT_ID>25413</NORAD_CAT_ID><ELEMENT_SET_NO>999</ELEMENT_SET_NO><REV_AT_EPOCH>38698</REV_AT_EPOCH><BSTAR>.87754E-3</BSTAR><MEAN_MOTION_DOT>.2367E-4</MEAN_MOTION_DOT><MEAN_MOTION_DDOT>0</MEAN_MOTION_DDOT></tleParameters></data></segment></body></omm>
<omm id="CCSDS_OMM_VERS" version="2.0">
<header><CREATION_DATE/><ORIGINATOR/></header><body><segment><metadata><OBJECT_NAME>ORBCOMM FM18</OBJECT_NAME><OBJECT_ID>1998-046B</OBJECT_ID><CENTER_NAME>EARTH</CENTER_NAME><REF_FRAME>TEME</REF_FRAME><TIME_SYSTEM>UTC</TIME_SYSTEM><MEAN_ELEMENT_THEORY>SGP4</MEAN_ELEMENT_THEORY></metadata><data><meanElements><EPOCH>2025-02-24T19:55:02.592768</EPOCH><MEAN_MOTION>14.38009235</MEAN_MOTION><ECCENTRICITY>.0004605</ECCENTRICITY><INCLINATION>44.9943</INCLINATION><RA_OF_ASC_NODE>348.0908</RA_OF_ASC_NODE><ARG_OF_PERICENTER>55.4814</ARG_OF_PERICENTER><MEAN_ANOMALY>304.6468</MEAN_ANOMALY></meanElements><tleParameters><EPHEMERIS_TYPE>0</EPHEMERIS_TYPE><CLASSIFICATION_TYPE>U</CLASSIFICATION_TYPE><NORAD_CAT_ID>25414</NORAD_CAT_ID><ELEMENT_SET_NO>999</ELEMENT_SET_NO><REV_AT_EPOCH>38824</REV_AT_EPOCH><BSTAR>.12763E-2</BSTAR><MEAN_MOTION_DOT>.3757E-4</MEAN_MOTION_DOT><MEAN_MOTION_DDOT>0</MEAN_MOTION_DDOT></tleParameters></data></segment></body></omm>
<omm id="CCSDS_OMM_VERS" version="2.0">
<header><CREATION_DATE/><ORIGINATOR/></header><body><segment><metadata><OBJECT_NAME>ORBCOMM FM19</OBJECT_NAME><OBJECT_ID>1998-046C</OBJECT_ID><CENTER_NAME>EARTH</CENTER_NAME><REF_FRAME>TEME</REF_FRAME><TIME_SYSTEM>UTC</TIME_SYSTEM><MEAN_ELEMENT_THEORY>SGP4</MEAN_ELEMENT_THEORY></metadata><data><meanElements><EPOCH>2025-02-24T20:06:18.314208</EPOCH><MEAN_MOTION>14.37820464</MEAN_MOTION><ECCENTRICITY>.0003688</ECCENTRICITY><INCLINATION>44.9952</INCLINATION><RA_OF_ASC_NODE>349.8761</RA_OF_ASC_NODE><ARG_OF_PERICENTER>41.7337</ARG_OF_PERICENTER><MEAN_ANOMALY>352.7832</MEAN_ANOMALY></meanElements><tleParameters><EPHEMERIS_TYPE>0</EPHEMERIS_TYPE><CLASSIFICATION_TYPE>U</CLASSIFICATION_TYPE><NORAD_CAT_ID>25415</NORAD_CAT_ID><ELEMENT_SET_NO>999</ELEMENT_SET_NO><REV_AT_EPOCH>38823</REV_AT_EPOCH><BSTAR>.12828E-2</BSTAR><MEAN_MOTION_DOT>.3762E-4</MEAN_MOTION_DOT><MEAN_MOTION_DDOT>0</MEAN_MOTION_DDOT></tleParameters></data></segment></body></omm>

</ndm>
