ORBCOMM FM05            
1 25117U 97084F   25055.57680872  .00004325  00000+0  12614-2 0  9993
2 25117  45.0131 188.5093 0000755 299.9628  60.1148 14.45255121424312
ORBCOMM FM06            
1 25118U 97084G   25055.60076358  .00003925  00000+0  11448-2 0  9995
2 25118  45.0122 188.2627 0000975 229.2935 240.2311 14.45417926425232
ORBCOMM FM07            
1 25119U 97084H   25055.52237415  .00004648  00000+0  13495-2 0  9997
2 25119  45.0118 189.3924 0001472 317.5719  42.5019 14.45363707425217
ORBCOMM FM03            
1 25158U 98007B   25055.48945684  .00002582  00000+0  95888-3 0  9997
2 25158 107.9708 264.1590 0043527  85.8019 274.8093 14.34049918407887
ORBCOMM FM04            
1 25159U 98007C   25055.49362752  .00002351  00000+0  87439-3 0  9995
2 25159 107.9694 267.3126 0039277  83.0340 277.5265 14.34310883408060
ORBCOMM FM17            
1 25413U 98046A   25055.47210026  .00002367  00000+0  87754-3 0  9992
2 25413  44.9938  69.4328 0003578 324.6481  35.4128 14.34702816386980
ORBCOMM FM18            
1 25414U 98046B   25055.82989112  .00003757  00000+0  12763-2 0  9992
2 25414  44.9943 348.0908 0004605  55.4814 304.6468 14.38009235388246
ORBCOMM FM19            
1 25415U 98046C   25055.83771197  .00003762  00000+0  12828-2 0  9994
2 25415  44.9952 349.8761 0003688  41.7337 352.7832 14.37820464388233
